[
  {
    "name": "STARLINK-33692",
    "noradId": "63408",
    "line1": "1 63408U 25065K   26177.80655694  .00019855  00000+0  72930-3 0  9996",
    "line2": "2 63408  42.9976 214.6668 0000823 282.3944  77.6816 15.27571225 69487"
  },
  {
    "name": "STARLINK-33693",
    "noradId": "63409",
    "line1": "1 63409U 25065L   26177.38902654  .00024760  00000+0  90572-3 0  9994",
    "line2": "2 63409  42.9950 213.2340 0000851 254.0964 105.9794 15.27599638 69467"
  },
  {
    "name": "STARLINK-33677",
    "noradId": "63410",
    "line1": "1 63410U 25065M   26177.38131668  .00015771  00000+0  58111-3 0  9990",
    "line2": "2 63410  42.9957 213.1745 0004155 280.9883  79.0501 15.27590746 69461"
  },
  {
    "name": "STARLINK-33647",
    "noradId": "63411",
    "line1": "1 63411U 25065N   26177.82149356  .00015768  00000+0  58104-3 0  9991",
    "line2": "2 63411  43.0014 218.2526 0002429 269.4229  90.6344 15.27593951 69442"
  },
  {
    "name": "STARLINK-33645",
    "noradId": "63412",
    "line1": "1 63412U 25065P   26177.83080822  .00023323  00000+0  85361-3 0  9996",
    "line2": "2 63412  43.0050 213.9257 0004223 274.6844  85.3525 15.27604134 69494"
  },
  {
    "name": "STARLINK-33670",
    "noradId": "63413",
    "line1": "1 63413U 25065Q   26177.50822656  .00019340  00000+0  71000-3 0  9999",
    "line2": "2 63413  43.0003 212.3767 0001849 268.2468  91.8172 15.27601442 69482"
  },
  {
    "name": "STARLINK-33644",
    "noradId": "63414",
    "line1": "1 63414U 25065R   26177.81602946  .00020336  00000+0  74656-3 0  9999",
    "line2": "2 63414  43.0023 211.2373 0002315 271.1127  88.9460 15.27576141 69529"
  },
  {
    "name": "STARLINK-33664",
    "noradId": "63415",
    "line1": "1 63415U 25065S   26177.77748107  .00014265  00000+0  52665-3 0  9995",
    "line2": "2 63415  43.0007 210.9517 0002267 273.2694  86.7898 15.27593696 69521"
  },
  {
    "name": "STARLINK-33649",
    "noradId": "63416",
    "line1": "1 63416U 25065T   26177.50308855  .00022533  00000+0  82480-3 0  9994",
    "line2": "2 63416  42.9998 212.3169 0002626 276.5523  83.5030 15.27620928 69481"
  },
  {
    "name": "STARLINK-33535",
    "noradId": "63417",
    "line1": "1 63417U 25065U   26177.77619694  .00016993  00000+0  62511-3 0  9996",
    "line2": "2 63417  42.9979 210.9143 0001278 274.7589  85.3117 15.27607021 69521"
  },
  {
    "name": "STARLINK-33703",
    "noradId": "63418",
    "line1": "1 63418U 25065V   26177.79675826  .00014428  00000+0  53289-3 0  9991",
    "line2": "2 63418  42.9991 211.0861 0001318 273.8904  86.1797 15.27574006 69520"
  },
  {
    "name": "STARLINK-33709",
    "noradId": "63419",
    "line1": "1 63419U 25065W   26177.80060754  .00014020  00000+0  51778-3 0  9991",
    "line2": "2 63419  43.0016 211.1178 0002489 268.3112  91.7454 15.27594998 69527"
  },
  {
    "name": "STARLINK-33698",
    "noradId": "63420",
    "line1": "1 63420U 25065X   26177.36459891  .00022747  00000+0  83312-3 0  9992",
    "line2": "2 63420  42.9982 212.9909 0001010 274.2657  85.8079 15.27598352 69467"
  },
  {
    "name": "STARLINK-33606",
    "noradId": "63421",
    "line1": "1 63421U 25065Y   26177.38259264  .00015804  00000+0  58206-3 0  9997",
    "line2": "2 63421  42.9986 213.1309 0000662 129.7280 230.3630 15.27609958 69462"
  },
  {
    "name": "STARLINK-33686",
    "noradId": "63422",
    "line1": "1 63422U 25065Z   26177.78518738  .00015200  00000+0  56050-3 0  9991",
    "line2": "2 63422  42.9971 210.9917 0002451 275.4034  84.6537 15.27593077 69528"
  },
  {
    "name": "STARLINK-33675",
    "noradId": "63423",
    "line1": "1 63423U 25065AA  26177.81846757  .00021582  00000+0  79045-3 0  9990",
    "line2": "2 63423  43.0002 210.3858 0000901 294.3561  65.7197 15.27623841 69533"
  },
  {
    "name": "STARLINK-33655",
    "noradId": "63424",
    "line1": "1 63424U 25065AB  26177.80830973  .00008534  00000+0  31920-3 0  9995",
    "line2": "2 63424  43.0017 211.1643 0003162 270.1857  89.8632 15.27587155 69520"
  },
  {
    "name": "STARLINK-33608",
    "noradId": "63425",
    "line1": "1 63425U 25065AC  26177.78260950  .00005634  00000+0  21410-3 0  9996",
    "line2": "2 63425  43.0029 210.9580 0002510 266.7787  93.2777 15.27579828 69527"
  },
  {
    "name": "STARLINK-33615",
    "noradId": "63426",
    "line1": "1 63426U 25065AD  26177.80446717  .00015213  00000+0  56135-3 0  9993",
    "line2": "2 63426  43.0002 211.1404 0001072 271.6513  88.4216 15.27572097 69526"
  },
  {
    "name": "STARLINK-33682",
    "noradId": "63433",
    "line1": "1 63433U 25069A   26178.17080300  .00088832  00000+0  15854-2 0  9997",
    "line2": "2 63433  53.1586 347.7708 0000691  88.1903 271.9185 15.49340446 70257"
  },
  {
    "name": "STARLINK-33710",
    "noradId": "63434",
    "line1": "1 63434U 25069B   26178.20612652  .00097581  00000+0  17385-2 0  9995",
    "line2": "2 63434  53.1600 347.2790 0000951  75.8144 284.2971 15.49345972 70260"
  },
  {
    "name": "STARLINK-33733",
    "noradId": "63435",
    "line1": "1 63435U 25069C   26178.17391090  .00026512  00000+0  79358-3 0  9997",
    "line2": "2 63435  53.1583 348.5015 0000926  74.1903 285.9202 15.34377900 70245"
  },
  {
    "name": "STARLINK-33638",
    "noradId": "63436",
    "line1": "1 63436U 25069D   26177.88503314  .00058812  00000+0  10569-2 0  9995",
    "line2": "2 63436  53.1586 348.8281 0000955  81.4273 278.6844 15.49325347 70212"
  },
  {
    "name": "STARLINK-33726",
    "noradId": "63437",
    "line1": "1 63437U 25069E   26178.19286576  .00094955  00000+0  16926-2 0  9990",
    "line2": "2 63437  53.1604 347.1952 0001061  82.8494 277.2636 15.49342886 70211"
  },
  {
    "name": "STARLINK-33681",
    "noradId": "63438",
    "line1": "1 63438U 25069F   26178.19569270  .00053001  00000+0  95327-3 0  9996",
    "line2": "2 63438  53.1580 347.2102 0001725  86.7265 273.3942 15.49346919 70251"
  },
  {
    "name": "STARLINK-33730",
    "noradId": "63439",
    "line1": "1 63439U 25069G   26178.16549427  .00031560  00000+0  91164-3 0  9997",
    "line2": "2 63439  53.1592 348.4494 0000780  97.5728 262.5363 15.35408297 70245"
  },
  {
    "name": "STARLINK-33743",
    "noradId": "63440",
    "line1": "1 63440U 25069H   26178.18444191  .00031568  00000+0  94183-3 0  9995",
    "line2": "2 63440  53.1591 348.5674 0001164  98.8653 261.2481 15.34389102 70132"
  },
  {
    "name": "STARLINK-33715",
    "noradId": "63441",
    "line1": "1 63441U 25069J   26177.73831648  .00070640  00000+0  12635-2 0  9998",
    "line2": "2 63441  53.1593 349.3275 0000780  94.9818 265.1280 15.49382118 70196"
  },
  {
    "name": "STARLINK-33762",
    "noradId": "63442",
    "line1": "1 63442U 25069K   26178.19286088  .00021185  00000+0  63647-3 0  9992",
    "line2": "2 63442  53.1598 348.6210 0001270  74.5704 285.5439 15.34394497 70252"
  },
  {
    "name": "STARLINK-33753",
    "noradId": "63443",
    "line1": "1 63443U 25069L   26178.16670139 -.00005232  00000+0 -14390-3 0  9992",
    "line2": "2 63443  53.1588 348.5589 0000691 106.0825 202.4183 15.34384744  5730"
  },
  {
    "name": "STARLINK-33747",
    "noradId": "63444",
    "line1": "1 63444U 25069M   26178.16670139 -.00010768  00000+0 -30820-3 0  9999",
    "line2": "2 63444  53.1597 348.6966 0000763  65.1855 173.6573 15.34381509  5849"
  },
  {
    "name": "STARLINK-33659",
    "noradId": "63445",
    "line1": "1 63445U 25069N   26177.95459403  .00057430  00000+0  10320-2 0  9992",
    "line2": "2 63445  53.1597 348.5505 0001953  47.1403 312.9770 15.49336461 70177"
  },
  {
    "name": "STARLINK-33746",
    "noradId": "63446",
    "line1": "1 63446U 25069P   26178.18654823  .00028569  00000+0  85361-3 0  9991",
    "line2": "2 63446  53.1609 348.5760 0001028  88.0021 272.1099 15.34393701 70195"
  },
  {
    "name": "STARLINK-33799",
    "noradId": "63447",
    "line1": "1 63447U 25069Q   26177.91418222  .00023493  00000+0  80258-3 0  9994",
    "line2": "2 63447  53.1613 355.4152 0001672  54.2309 305.8847 15.30209225 70011"
  },
  {
    "name": "STARLINK-33797",
    "noradId": "63448",
    "line1": "1 63448U 25069R   26178.20337569  .00026836  00000+0  80269-3 0  9998",
    "line2": "2 63448  53.1615 348.6843 0000806 115.7812 244.3273 15.34394583 70189"
  },
  {
    "name": "STARLINK-33798",
    "noradId": "63449",
    "line1": "1 63449U 25069S   26178.20546161  .00018206  00000+0  54863-3 0  9992",
    "line2": "2 63449  53.1607 348.6847 0000301 351.4928   8.6069 15.34401511 69971"
  },
  {
    "name": "STARLINK-33736",
    "noradId": "63450",
    "line1": "1 63450U 25069T   26178.18175931  .00026060  00000+0  75559-3 0  9996",
    "line2": "2 63450  53.1584 348.5486 0000840 121.6417 238.4668 15.35391477 70197"
  },
  {
    "name": "STARLINK-33740",
    "noradId": "63451",
    "line1": "1 63451U 25069U   26178.19632076  .00061012  00000+0  10962-2 0  9998",
    "line2": "2 63451  53.1591 347.2086 0001131  71.0143 289.0989 15.49316916 70150"
  },
  {
    "name": "STARLINK-33763",
    "noradId": "63452",
    "line1": "1 63452U 25069V   26178.19496407  .00027675  00000+0  82741-3 0  9997",
    "line2": "2 63452  53.1614 348.6176 0001161  69.6009 290.5118 15.34391611 70249"
  },
  {
    "name": "STARLINK-33784",
    "noradId": "63453",
    "line1": "1 63453U 25069W   26177.91312946  .00034448  00000+0  11705-2 0  9999",
    "line2": "2 63453  53.1598 355.4032 0001075  72.5004 287.6114 15.30181068 70129"
  },
  {
    "name": "STARLINK-33768",
    "noradId": "63454",
    "line1": "1 63454U 25069X   26178.19706936  .00026951  00000+0  80613-3 0  9992",
    "line2": "2 63454  53.1613 348.6282 0001861  80.9312 279.1901 15.34391158 70236"
  },
  {
    "name": "STARLINK-33761",
    "noradId": "63455",
    "line1": "1 63455U 25069Y   26177.91758295  .00030790  00000+0  91924-3 0  9990",
    "line2": "2 63455  53.1590 349.7298 0001065  76.4183 283.6938 15.34380781 70209"
  }
]